{
  "norad_id": 68111,
  "name": "STARLINK-36791",
  "history": [
    {
      "epoch": "2026-03-28T21:22:26.664096Z",
      "apogee_km": 345.0178799687201,
      "perigee_km": 343.15246331608887,
      "latitude_deg": 9.565441138302539e-06,
      "longitude_deg": -97.92363953997541,
      "height_km": 347.3690628146373,
      "semi_major_axis_km": 6722.222171642404,
      "eccentricity": 0.00013875,
      "inclination_deg": 97.2846,
      "raan_deg": 48.992,
      "arg_perigee_deg": 97.2515,
      "mean_anomaly_deg": 262.8908,
      "mean_motion_rev_day": 15.75191897
    },
    {
      "epoch": "2026-03-29T03:28:21.773280Z",
      "apogee_km": 345.3165863440945,
      "perigee_km": 342.4731668602917,
      "latitude_deg": 5.684875459434738e-05,
      "longitude_deg": 170.61327057661043,
      "height_km": 347.52377453248386,
      "semi_major_axis_km": 6722.031876602193,
      "eccentricity": 0.0002115,
      "inclination_deg": 97.2845,
      "raan_deg": 49.259,
      "arg_perigee_deg": 109.033,
      "mean_anomaly_deg": 251.1165,
      "mean_motion_rev_day": 15.75258786
    },
    {
      "epoch": "2026-03-29T08:02:51.263520Z",
      "apogee_km": 346.65234744137706,
      "perigee_km": 343.0965466870257,
      "latitude_deg": 5.599024367031835e-05,
      "longitude_deg": 102.00161202453249,
      "height_km": 347.2389440488271,
      "semi_major_axis_km": 6723.011447064201,
      "eccentricity": 0.00026445,
      "inclination_deg": 97.2842,
      "raan_deg": 49.4581,
      "arg_perigee_deg": 63.2809,
      "mean_anomaly_deg": 296.8727,
      "mean_motion_rev_day": 15.74914516
    },
    {
      "epoch": "2026-03-31T19:43:43.468896Z",
      "apogee_km": 374.9050978705118,
      "perigee_km": 373.8800638801349,
      "latitude_deg": 7.790984534405776e-05,
      "longitude_deg": -73.07962899855106,
      "height_km": 378.05923741830856,
      "semi_major_axis_km": 6752.5295808753235,
      "eccentricity": 7.59e-05,
      "inclination_deg": 97.285,
      "raan_deg": 52.0454,
      "arg_perigee_deg": 179.5907,
      "mean_anomaly_deg": 180.5354,
      "mean_motion_rev_day": 15.64598894
    },
    {
      "epoch": "2026-04-01T20:00:01.999008Z",
      "apogee_km": 389.09429978954995,
      "perigee_km": 386.98189992337393,
      "latitude_deg": -75.02300374068733,
      "longitude_deg": -48.74192180072579,
      "height_km": 416.38156192428016,
      "semi_major_axis_km": 6766.175099856461,
      "eccentricity": 0.0001561,
      "inclination_deg": 97.2847,
      "raan_deg": 53.086,
      "arg_perigee_deg": 97.889,
      "mean_anomaly_deg": 185.3669,
      "mean_motion_rev_day": 15.59868231
    },
    {
      "epoch": "2026-04-02T20:00:01.999008Z",
      "apogee_km": 401.5005602627398,
      "perigee_km": 399.01560062624867,
      "latitude_deg": 51.96846204908644,
      "longitude_deg": 112.27811552544783,
      "height_km": 407.80332883665864,
      "semi_major_axis_km": 6778.395080444494,
      "eccentricity": 0.0001833,
      "inclination_deg": 97.2857,
      "raan_deg": 54.1083,
      "arg_perigee_deg": 86.8622,
      "mean_anomaly_deg": 40.664,
      "mean_motion_rev_day": 15.55651975
    },
    {
      "epoch": "2026-04-02T22:00:01.999584Z",
      "apogee_km": 402.3788985062838,
      "perigee_km": 399.965328875629,
      "latitude_deg": -53.48859810092756,
      "longitude_deg": 63.03727535049335,
      "height_km": 422.79015488197757,
      "semi_major_axis_km": 6779.309113690956,
      "eccentricity": 0.00017801,
      "inclination_deg": 97.2854,
      "raan_deg": 54.193,
      "arg_perigee_deg": 103.3314,
      "mean_anomaly_deg": 130.5202,
      "mean_motion_rev_day": 15.5533737
    },
    {
      "epoch": "2026-04-03T20:00:01.999008Z",
      "apogee_km": 413.5825399064579,
      "perigee_km": 411.4190427061476,
      "latitude_deg": -43.19942080916638,
      "longitude_deg": -70.18908603099382,
      "height_km": 430.1279975735552,
      "semi_major_axis_km": 6790.6377913063025,
      "eccentricity": 0.0001593,
      "inclination_deg": 97.2852,
      "raan_deg": 55.1249,
      "arg_perigee_deg": 104.2225,
      "mean_anomaly_deg": 212.4281,
      "mean_motion_rev_day": 15.51446889
    }
  ]
}